STARLINK-1363           
1 45568U 20025AP  25287.00005787  .01440528  00000+0  77894-1 0  9997
2 45568  53.0541  25.3340 0001217  85.7882 220.8997 15.11017890  5807
STARLINK-1366           
1 45569U 20025AQ  25287.00005787  .01034710  00000+0  53764-1 0  9990
2 45569  53.0539  25.0169 0001209  88.7915 316.5303 15.12971235  5809
STARLINK-1376           
1 45570U 20025AR  25286.66361251 -.00001502  00000+0 -81982-4 0  9994
2 45570  53.0538  26.6442 0001606  91.9502 268.1671 15.06394491303201
STARLINK-1320           
1 45572U 20025AT  25286.55982190  .00074651  00000+0  18556-2 0  9993
2 45572  53.0587 334.8268 0009048 297.9640  62.0447 15.39622167303949
STARLINK-1321           
1 45573U 20025AU  25286.64977662  .00011919  00000+0  81698-3 0  9998
2 45573  53.0551  16.7054 0001645  87.6791 272.4386 15.06433455303040
STARLINK-1328           
1 45576U 20025AX  25287.00005787  .00166978  00000+0  18447-2 0  9999
2 45576  53.0541 358.7425 0008353 325.5573 273.0832 15.61976276  5943
STARLINK-1331           
1 45578U 20025AZ  25286.95940276  .00002471  00000+0  18466-3 0  9994
2 45578  53.0551  15.3143 0001781  84.8718 275.2474 15.06411139303402
STARLINK-1333           
1 45580U 20025BB  25286.56779644  .00002549  00000+0  18997-3 0  9998
2 45580  53.0551  27.0732 0001431  92.5795 267.5358 15.06395069303196
STARLINK-1335           
1 45581U 20025BC  25286.63874445 -.00001439  00000+0 -77758-4 0  9992
2 45581  53.0552  16.7550 0001292  87.2915 272.8222 15.06394344303342
STARLINK-1337           
1 45582U 20025BD  25286.66084621  .00020772  00000+0  14079-2 0  9999
2 45582  53.0544  16.6574 0001530  71.5522 288.5633 15.06435651303341
STARLINK-1347           
1 45586U 20025BH  25286.61952581  .00053065  00000+0  18825-2 0  9991
2 45586  53.0578   5.3060 0004960 262.8113  97.2322 15.28567246303494
STARLINK-1360           
1 45588U 20025BK  25286.98390999  .00101647  00000+0  78036-3 0  9993
2 45588  53.0466 287.7456 0006158  54.1940 305.9649 15.71271268304629
STARLINK-1364           
1 45589U 20025BL  25286.66452557  .00015050  00000+0  10264-2 0  9998
2 45589  53.0542  16.6418 0001619 104.3067 255.8101 15.06427269303343
STARLINK-1365           
1 45590U 20025BM  25286.61384334  .00006059  00000+0  42516-3 0  9997
2 45590  53.0527  46.8644 0001370  85.4226 274.6919 15.06413477302930
XINGYUN-2 01            
1 45602U 20028A   25286.94154822  .00004320  00000+0  26803-3 0  9997
2 45602  97.4748 279.7217 0008782 342.7515  17.3415 15.10207887297654
XINGYUN-2 02            
1 45603U 20028B   25286.95040111  .00003809  00000+0  23763-3 0  9997
2 45603  97.5119 292.5069 0012595  45.5302 314.6956 15.10050951297656
COSMOS 2546             
1 45608U 20031A   25281.27193296  .00000359  00000+0  00000+0 0  9991
2 45608  63.1376  97.8051 6950545 265.2846  19.2823  2.00638591 39414
GAOFEN-9 02             
1 45625U 20034B   25286.96739020  .00010433  00000+0  44248-3 0  9995
2 45625  97.5478  77.1400 0010433 190.2476 169.8550 15.23257751298655
STARLINK-1443           
1 45660U 20035D   25286.93083648  .00006740  00000+0  47080-3 0  9993
2 45660  53.0539   5.4475 0000890 100.4427 259.6662 15.06412175296610
STARLINK-1446           
1 45663U 20035G   25286.84709543  .00042672  00000+0  13917-2 0  9990
2 45663  53.0282 332.0263 0001907 225.4744 134.6100 15.31402439297072
STARLINK-1448           
1 45665U 20035J   25286.93454946  .00002581  00000+0  19214-3 0  9998
2 45665  53.0546   5.4265 0001922  88.9468 271.1741 15.06396667296605
STARLINK-1451           
1 45668U 20035M   25286.93824301 -.00002976  00000+0 -18099-3 0  9997
2 45668  53.0551   5.7286 0001241 100.4976 259.6153 15.06403312296613
STARLINK-1452           
1 45669U 20035N   25286.87010397  .00019555  00000+0  79594-3 0  9999
2 45669  53.0388 349.3789 0008433 309.7052  50.3201 15.24502410296839
STARLINK-1453           
1 45670U 20035P   25286.55025632  .00011125  00000+0  76397-3 0  9997
2 45670  53.0535 337.1569 0001431  89.3269 270.7884 15.06430846296869
STARLINK-1454           
1 45671U 20035Q   25286.96034470  .00002015  00000+0  15414-3 0  9994
2 45671  53.0552   5.3130 0002228  85.2335 274.8909 15.06396070296606
STARLINK-1456           
1 45673U 20035S   25286.51064363  .00015505  00000+0  10568-2 0  9993
2 45673  53.0563   7.3367 0001608 114.8963 245.2194 15.06424769296550
STARLINK-1457           
1 45674U 20035T   25286.51800380  .00018005  00000+0  12234-2 0  9991
2 45674  53.0555   7.2979 0001470  92.2456 267.8701 15.06433737296529
STARLINK-1458           
1 45675U 20035U   25286.63965151  .00008964  00000+0  61965-3 0  9992
2 45675  53.0542   6.7493 0001578 102.5687 257.5479 15.06417066296537
STARLINK-1460           
1 45676U 20035V   25286.94190462  .00002453  00000+0  18350-3 0  9999
2 45676  53.0552   5.3942 0000999  92.0954 268.0150 15.06405293296575
STARLINK-1392           
1 45677U 20035W   25286.95297468 -.00002123  00000+0 -12373-3 0  9990
2 45677  53.0557   5.3452 0001602  93.6859 266.4313 15.06388246296616
