OBJECT_NAME,OBJECT_ID,EPOCH,MEAN_MOTION,ECCENTRICITY,INCLINATION,RA_OF_ASC_NODE,ARG_OF_PERICENTER,MEAN_ANOMALY,EPHEMERIS_TYPE,CLASSIFICATION_TYPE,NORAD_CAT_ID,ELEMENT_SET_NO,REV_AT_EPOCH,BSTAR,MEAN_MOTION_DOT,MEAN_MOTION_DDOT
STARLINK-1363,2020-025AP,2025-10-14T00:00:04.999968,15.11017890,.00012178,53.0541,25.3340,85.7882,220.8997,0,U,45568,999,580,.77893724E-1,.1440528E-1,0
STARLINK-1366,2020-025AQ,2025-10-14T00:00:04.999968,15.12971235,.00012098,53.0539,25.0169,88.7915,316.5303,0,U,45569,999,580,.53764429E-1,.103471E-1,0
STARLINK-1376,2020-025AR,2025-10-13T15:55:36.120864,15.06394491,.00016062,53.0538,26.6442,91.9502,268.1671,0,U,45570,999,30320,-.81982426E-4,-.1502E-4,0
STARLINK-1320,2020-025AT,2025-10-13T13:26:08.612160,15.39622167,.0009048,53.0587,334.8268,297.9640,62.0447,0,U,45572,999,30394,.1855551E-2,.74651E-3,0
STARLINK-1321,2020-025AU,2025-10-13T15:35:40.699968,15.06433455,.00016456,53.0551,16.7054,87.6791,272.4386,0,U,45573,999,30304,.81697746E-3,.11919E-3,0
STARLINK-1328,2020-025AX,2025-10-14T00:00:04.999968,15.61976276,.0008353,53.0541,358.7425,325.5573,273.0832,0,U,45576,999,594,.18447132E-2,.166978E-2,0
STARLINK-1331,2020-025AZ,2025-10-13T23:01:32.398464,15.06411139,.00017815,53.0551,15.3143,84.8718,275.2474,0,U,45578,999,30340,.18465656E-3,.2471E-4,0
STARLINK-1333,2020-025BB,2025-10-13T13:37:37.612416,15.06395069,.00014313,53.0551,27.0732,92.5795,267.5358,0,U,45580,999,30319,.18997073E-3,.2549E-4,0
STARLINK-1335,2020-025BC,2025-10-13T15:19:47.520480,15.06394344,.00012923,53.0552,16.7550,87.2915,272.8222,0,U,45581,999,30334,-.77757965E-4,-.1439E-4,0
STARLINK-1337,2020-025BD,2025-10-13T15:51:37.112544,15.06435651,.00015309,53.0544,16.6574,71.5522,288.5633,0,U,45582,999,30334,.14079354E-2,.20772E-3,0
STARLINK-1347,2020-025BH,2025-10-13T14:52:07.029984,15.28567246,.00049601,53.0578,5.3060,262.8113,97.2322,0,U,45586,999,30349,.18824601E-2,.53065E-3,0
STARLINK-1360,2020-025BK,2025-10-13T23:36:49.823136,15.71271268,.00061588,53.0466,287.7456,54.1940,305.9649,0,U,45588,999,30462,.7803581E-3,.101647E-2,0
STARLINK-1364,2020-025BL,2025-10-13T15:56:55.009248,15.06427269,.00016196,53.0542,16.6418,104.3067,255.8101,0,U,45589,999,30334,.10263736E-2,.1505E-3,0
STARLINK-1365,2020-025BM,2025-10-13T14:43:56.064576,15.06413477,.00013708,53.0527,46.8644,85.4226,274.6919,0,U,45590,999,30293,.42515857E-3,.6059E-4,0
XINGYUN-2 01,2020-028A,2025-10-13T22:35:49.766208,15.10207887,.00087822,97.4748,279.7217,342.7515,17.3415,0,U,45602,999,29765,.26803087E-3,.432E-4,0
XINGYUN-2 02,2020-028B,2025-10-13T22:48:34.655904,15.10050951,.00125957,97.5119,292.5069,45.5302,314.6956,0,U,45603,999,29765,.2376334E-3,.3809E-4,0
COSMOS 2546,2020-031A,2025-10-08T06:31:35.007744,2.00638591,.69505455,63.1376,97.8051,265.2846,19.2823,0,U,45608,999,3941,0,.359E-5,0
GAOFEN-9 02,2020-034B,2025-10-13T23:13:02.513280,15.23257751,.00104338,97.5478,77.1400,190.2476,169.8550,0,U,45625,999,29865,.44248094E-3,.10433E-3,0
STARLINK-1443,2020-035D,2025-10-13T22:20:24.271872,15.06412175,.000089,53.0539,5.4475,100.4427,259.6662,0,U,45660,999,29661,.47079637E-3,.674E-4,0
STARLINK-1446,2020-035G,2025-10-13T20:19:49.045152,15.31402439,.00019071,53.0282,332.0263,225.4744,134.6100,0,U,45663,999,29707,.13916663E-2,.42672E-3,0
STARLINK-1448,2020-035J,2025-10-13T22:25:45.073344,15.06396667,.00019222,53.0546,5.4265,88.9468,271.1741,0,U,45665,999,29660,.19213524E-3,.2581E-4,0
STARLINK-1451,2020-035M,2025-10-13T22:31:04.196064,15.06403312,.00012412,53.0551,5.7286,100.4976,259.6153,0,U,45668,999,29661,-.18098838E-3,-.2976E-4,0
STARLINK-1452,2020-035N,2025-10-13T20:52:56.983008,15.24502410,.00084337,53.0388,349.3789,309.7052,50.3201,0,U,45669,999,29683,.79594112E-3,.19555E-3,0
STARLINK-1453,2020-035P,2025-10-13T13:12:22.146048,15.06430846,.00014319,53.0535,337.1569,89.3269,270.7884,0,U,45670,999,29686,.76397271E-3,.11125E-3,0
STARLINK-1454,2020-035Q,2025-10-13T23:02:53.782080,15.06396070,.00022284,53.0552,5.3130,85.2335,274.8909,0,U,45671,999,29660,.15414331E-3,.2015E-4,0
STARLINK-1456,2020-035S,2025-10-13T12:15:19.609632,15.06424769,.00016082,53.0563,7.3367,114.8963,245.2194,0,U,45673,999,29655,.10568041E-2,.15505E-3,0
STARLINK-1457,2020-035T,2025-10-13T12:25:55.528320,15.06433737,.00014708,53.0555,7.2979,92.2456,267.8701,0,U,45674,999,29652,.12234493E-2,.18005E-3,0
STARLINK-1458,2020-035U,2025-10-13T15:21:05.890464,15.06417066,.00015782,53.0542,6.7493,102.5687,257.5479,0,U,45675,999,29653,.619651E-3,.8964E-4,0
STARLINK-1460,2020-035V,2025-10-13T22:36:20.559168,15.06405293,.00009997,53.0552,5.3942,92.0954,268.0150,0,U,45676,999,29657,.18349529E-3,.2453E-4,0
STARLINK-1392,2020-035W,2025-10-13T22:52:17.012352,15.06388246,.00016027,53.0557,5.3452,93.6859,266.4313,0,U,45677,999,29661,-.12373043E-3,-.2123E-4,0
